{
  "type": "FeatureCollection",
  "features": [
    {
      "type": "Feature",
      "properties": {
        "norad_id": 33765,
        "name": "COSMOS 2251 DEB",
        "group": "cosmos-2251-debris",
        "lat": -71.1396788580096,
        "lon": 132.55876504275523,
        "alt_km": 498.8494232123494,
        "timestamp": "2025-12-04T17:48:40.557291+00:00",
        "meta_object_name": "COSMOS 2251 DEB",
        "meta_object_id": "1993-036N",
        "meta_epoch": "2025-12-04T01:10:33.505824",
        "meta_mean_motion": 15.09134383,
        "meta_eccentricity": 0.00675871,
        "meta_inclination": 74.0112,
        "meta_ra_of_asc_node": 191.0631,
        "meta_arg_of_pericenter": 284.7774,
        "meta_mean_anomaly": 191.1703,
        "meta_ephemeris_type": 0,
        "meta_classification_type": "U",
        "meta_norad_cat_id": 33765,
        "meta_element_set_no": 999,
        "meta_rev_at_epoch": 89487,
        "meta_bstar": 0.0040594331,
        "meta_mean_motion_dot": 0.00068552,
        "meta_mean_motion_ddot": 0,
        "tle_line1": "1 33765U 93036N   25338.04899891  .00068552  00000+0  40594-2 0  9993",
        "tle_line2": "2 33765  74.0112 191.0631 0067587 284.7774 191.1703 15.09134383894879"
      },
      "geometry": {
        "type": "Point",
        "coordinates": [
          132.55876504275523,
          -71.1396788580096
        ]
      }
    },
    {
      "type": "Feature",
      "properties": {
        "norad_id": 33766,
        "name": "COSMOS 2251 DEB",
        "group": "cosmos-2251-debris",
        "lat": 54.289136737555964,
        "lon": -53.72048102287928,
        "alt_km": 797.304574331657,
        "timestamp": "2025-12-04T17:48:40.557302+00:00",
        "meta_object_name": "COSMOS 2251 DEB",
        "meta_object_id": "1993-036P",
        "meta_epoch": "2025-12-04T05:31:57.181152",
        "meta_mean_motion": 14.34897366,
        "meta_eccentricity": 0.00637018,
        "meta_inclination": 74.1846,
        "meta_ra_of_asc_node": 150.4304,
        "meta_arg_of_pericenter": 356.2282,
        "meta_mean_anomaly": 3.8382,
        "meta_ephemeris_type": 0,
        "meta_classification_type": "U",
        "meta_norad_cat_id": 33766,
        "meta_element_set_no": 999,
        "meta_rev_at_epoch": 87623,
        "meta_bstar": 0.00085392458,
        "meta_mean_motion_dot": 2.459e-05,
        "meta_mean_motion_ddot": 0,
        "tle_line1": "1 33766U 93036P   25338.23052293  .00002459  00000+0  85392-3 0  9992",
        "tle_line2": "2 33766  74.1846 150.4304 0063701 356.2282   3.8382 14.34897366876230"
      },
      "geometry": {
        "type": "Point",
        "coordinates": [
          -53.72048102287928,
          54.289136737555964
        ]
      }
    },
    {
      "type": "Feature",
      "properties": {
        "norad_id": 33768,
        "name": "COSMOS 2251 DEB",
        "group": "cosmos-2251-debris",
        "lat": 73.86763202231268,
        "lon": -28.14283029523729,
        "alt_km": 891.7964529310111,
        "timestamp": "2025-12-04T17:48:40.557313+00:00",
        "meta_object_name": "COSMOS 2251 DEB",
        "meta_object_id": "1993-036R",
        "meta_epoch": "2025-12-04T03:47:45.461184",
        "meta_mean_motion": 13.58443807,
        "meta_eccentricity": 0.03658733,
        "meta_inclination": 74.0687,
        "meta_ra_of_asc_node": 233.716,
        "meta_arg_of_pericenter": 33.3492,
        "meta_mean_anomaly": 80.7908,
        "meta_ephemeris_type": 0,
        "meta_classification_type": "U",
        "meta_norad_cat_id": 33768,
        "meta_element_set_no": 999,
        "meta_rev_at_epoch": 83179,
        "meta_bstar": 0.00061497563,
        "meta_mean_motion_dot": 6.73e-06,
        "meta_mean_motion_ddot": 0,
        "tle_line1": "1 33768U 93036R   25338.15816506  .00000673  00000+0  61498-3 0  9997",
        "tle_line2": "2 33768  74.0687 233.7160 0365873  33.3492  80.7908 13.58443807831792"
      },
      "geometry": {
        "type": "Point",
        "coordinates": [
          -28.14283029523729,
          73.86763202231268
        ]
      }
    },
    {
      "type": "Feature",
      "properties": {
        "norad_id": 33779,
        "name": "COSMOS 2251 DEB",
        "group": "cosmos-2251-debris",
        "lat": 14.35708618167214,
        "lon": 2.0274284152668245,
        "alt_km": 654.0861707571803,
        "timestamp": "2025-12-04T17:48:40.557323+00:00",
        "meta_object_name": "COSMOS 2251 DEB",
        "meta_object_id": "1993-036U",
        "meta_epoch": "2025-12-04T01:17:57.805728",
        "meta_mean_motion": 14.70181178,
        "meta_eccentricity": 0.00176806,
        "meta_inclination": 74.0442,
        "meta_ra_of_asc_node": 187.56,
        "meta_arg_of_pericenter": 222.6406,
        "meta_mean_anomaly": 262.6385,
        "meta_ephemeris_type": 0,
        "meta_classification_type": "U",
        "meta_norad_cat_id": 33779,
        "meta_element_set_no": 999,
        "meta_rev_at_epoch": 88400,
        "meta_bstar": 0.0026535211,
        "meta_mean_motion_dot": 0.00016025,
        "meta_mean_motion_ddot": 0,
        "tle_line1": "1 33779U 93036U   25338.05414127  .00016025  00000+0  26535-2 0  9991",
        "tle_line2": "2 33779  74.0442 187.5600 0017680 222.6406 262.6385 14.70181178884003"
      },
      "geometry": {
        "type": "Point",
        "coordinates": [
          2.0274284152668245,
          14.35708618167214
        ]
      }
    },
    {
      "type": "Feature",
      "properties": {
        "norad_id": 33782,
        "name": "COSMOS 2251 DEB",
        "group": "cosmos-2251-debris",
        "lat": 61.269415897211026,
        "lon": -36.17574708242147,
        "alt_km": 745.198050424402,
        "timestamp": "2025-12-04T17:48:40.557333+00:00",
        "meta_object_name": "COSMOS 2251 DEB",
        "meta_object_id": "1993-036X",
        "meta_epoch": "2025-12-04T06:24:10.267200",
        "meta_mean_motion": 14.40410184,
        "meta_eccentricity": 0.00203777,
        "meta_inclination": 74.0327,
        "meta_ra_of_asc_node": 293.2163,
        "meta_arg_of_pericenter": 359.4828,
        "meta_mean_anomaly": 122.2189,
        "meta_ephemeris_type": 0,
        "meta_classification_type": "U",
        "meta_norad_cat_id": 33782,
        "meta_element_set_no": 999,
        "meta_rev_at_epoch": 88004,
        "meta_bstar": 0.00085183044,
        "meta_mean_motion_dot": 2.686e-05,
        "meta_mean_motion_ddot": 0,
        "tle_line1": "1 33782U 93036X   25338.26678550  .00002686  00000+0  85183-3 0  9993",
        "tle_line2": "2 33782  74.0327 293.2163 0020377 359.4828 122.2189 14.40410184880044"
      },
      "geometry": {
        "type": "Point",
        "coordinates": [
          -36.17574708242147,
          61.269415897211026
        ]
      }
    },
    {
      "type": "Feature",
      "properties": {
        "norad_id": 33785,
        "name": "COSMOS 2251 DEB",
        "group": "cosmos-2251-debris",
        "lat": 40.284607962267394,
        "lon": -118.5982750685117,
        "alt_km": 664.570924782297,
        "timestamp": "2025-12-04T17:48:40.557358+00:00",
        "meta_object_name": "COSMOS 2251 DEB",
        "meta_object_id": "1993-036AA",
        "meta_epoch": "2025-12-04T07:39:50.746176",
        "meta_mean_motion": 14.7017469,
        "meta_eccentricity": 0.00214769,
        "meta_inclination": 73.8677,
        "meta_ra_of_asc_node": 76.431,
        "meta_arg_of_pericenter": 18.0454,
        "meta_mean_anomaly": 42.5326,
        "meta_ephemeris_type": 0,
        "meta_classification_type": "U",
        "meta_norad_cat_id": 33785,
        "meta_element_set_no": 999,
        "meta_rev_at_epoch": 88383,
        "meta_bstar": 0.0053277795,
        "meta_mean_motion_dot": 0.00032318,
        "meta_mean_motion_ddot": 0,
        "tle_line1": "1 33785U 93036AA  25338.31933734  .00032318  00000+0  53278-2 0  9994",
        "tle_line2": "2 33785  73.8677  76.4310 0021476  18.0454  42.5326 14.70174690883830"
      },
      "geometry": {
        "type": "Point",
        "coordinates": [
          -118.5982750685117,
          40.284607962267394
        ]
      }
    },
    {
      "type": "Feature",
      "properties": {
        "norad_id": 33789,
        "name": "COSMOS 2251 DEB",
        "group": "cosmos-2251-debris",
        "lat": 39.05886248824819,
        "lon": -92.42750648200672,
        "alt_km": 893.1295016535805,
        "timestamp": "2025-12-04T17:48:40.557371+00:00",
        "meta_object_name": "COSMOS 2251 DEB",
        "meta_object_id": "1993-036AE",
        "meta_epoch": "2025-12-04T02:26:01.956192",
        "meta_mean_motion": 13.88764069,
        "meta_eccentricity": 0.02404684,
        "meta_inclination": 74.0636,
        "meta_ra_of_asc_node": 102.066,
        "meta_arg_of_pericenter": 219.5889,
        "meta_mean_anomaly": 319.9835,
        "meta_ephemeris_type": 0,
        "meta_classification_type": "U",
        "meta_norad_cat_id": 33789,
        "meta_element_set_no": 999,
        "meta_rev_at_epoch": 84975,
        "meta_bstar": 0.0013316112,
        "meta_mean_motion_dot": 2e-05,
        "meta_mean_motion_ddot": 0,
        "tle_line1": "1 33789U 93036AE  25338.10141153  .00002000  00000+0  13316-2 0  9995",
        "tle_line2": "2 33789  74.0636 102.0660 0240468 219.5889 319.9835 13.88764069849752"
      },
      "geometry": {
        "type": "Point",
        "coordinates": [
          -92.42750648200672,
          39.05886248824819
        ]
      }
    }
  ]
}